OBJECT_NAME,OBJECT_ID,EPOCH,MEAN_MOTION,ECCENTRICITY,INCLINATION,RA_OF_ASC_NODE,ARG_OF_PERICENTER,MEAN_ANOMALY,EPHEMERIS_TYPE,CLASSIFICATION_TYPE,NORAD_CAT_ID,ELEMENT_SET_NO,REV_AT_EPOCH,BSTAR,MEAN_MOTION_DOT,MEAN_MOTION_DDOT
STARLINK-35489,2025-223D,2026-06-17T08:07:21.599616,15.34405325,.0001297,53.1582,190.5192,85.0012,275.1139,0,U,65857,999,3947,.39888E-3,.13126E-3,0
STARLINK-35199,2025-223E,2026-06-17T08:03:39.229344,15.30208786,.0001293,53.1586,191.2089,85.1811,274.9338,0,U,65858,999,3946,.49072E-3,.14206E-3,0
STARLINK-35408,2025-223F,2026-06-17T08:16:27.028128,15.34405041,.0001206,53.1577,190.5610,91.3348,268.7793,0,U,65859,999,3947,.52404E-3,.17373E-3,0
STARLINK-35303,2025-223G,2026-06-17T08:10:23.347200,15.34402906,.0000814,53.1573,190.5321,95.5594,264.5502,0,U,65860,999,3947,.48674E-3,.16106E-3,0
STARLINK-35258,2025-223H,2026-06-17T07:40:05.568096,15.34410654,.0001305,53.1583,190.3982,87.0959,273.0192,0,U,65861,999,3947,.50973E-3,.16891E-3,0
STARLINK-35386,2025-223J,2026-06-17T08:52:50.546208,15.34375963,.0001374,53.1573,190.7136,62.3584,297.7558,0,U,65862,999,3947,.5675E-3,.18831E-3,0
STARLINK-35469,2025-223K,2026-06-17T07:52:12.523008,15.34406850,.0001326,53.1590,190.4527,91.3803,268.7352,0,U,65863,999,3947,.62684E-3,.20866E-3,0
STARLINK-35471,2025-223L,2026-06-17T07:53:00.772224,15.30205301,.0001119,53.1585,191.1598,80.1114,280.0013,0,U,65864,999,3946,.31863E-3,.9091E-4,0
STARLINK-35475,2025-223M,2026-06-17T07:46:08.887872,15.34403889,.0001239,53.1586,190.4221,90.7430,269.3715,0,U,65865,999,3947,.40942E-3,.13483E-3,0
STARLINK-35312,2025-223N,2026-06-17T08:01:17.597280,15.34416290,.0001316,53.1580,190.4877,137.2709,222.8396,0,U,65866,999,3947,.84838E-3,.28411E-3,0
STARLINK-35456,2025-223P,2026-06-17T08:05:10.612032,15.30228894,.0001453,53.1582,191.2091,87.1229,272.9938,0,U,65867,999,3946,.86511E-3,.25373E-3,0
STARLINK-35450,2025-223Q,2026-06-17T07:49:10.695936,15.34404507,.0001303,53.1584,190.4402,87.7155,272.3997,0,U,65868,999,3947,.60171E-3,.20011E-3,0
STARLINK-35441,2025-223R,2026-06-17T08:13:24.934080,15.34408032,.0001208,53.1578,190.5449,94.3471,265.7669,0,U,65869,999,3947,.52466E-3,.17396E-3,0
STARLINK-35433,2025-223S,2026-06-17T07:59:06.027360,15.30225067,.0001445,53.1587,191.1857,90.4153,269.7013,0,U,65870,999,3947,.40216E-3,.11579E-3,0
STARLINK-35465,2025-223T,2026-06-17T08:17:19.969728,15.30206260,.0001155,53.1575,191.2659,103.3381,256.7748,0,U,65871,999,3946,.42885E-3,.12366E-3,0
STARLINK-34108,2025-223U,2026-06-17T07:57:36.497088,15.30195944,.0000912,53.1590,191.1783,94.1738,265.9367,0,U,65872,999,3946,.49218E-3,.14244E-3,0
STARLINK-35423,2025-223V,2026-06-17T09:01:45.859872,15.34402153,.0001238,53.1577,190.0382,89.8037,270.3107,0,U,65873,999,3948,.61857E-3,.20582E-3,0
STARLINK-35425,2025-223W,2026-06-17T06:54:46.166112,15.34409557,.0001132,53.1575,190.9103,88.3433,271.7699,0,U,65874,999,3946,.78222E-3,.26153E-3,0
STARLINK-34688,2025-223X,2026-06-17T07:55:14.336256,15.34403329,.0001272,53.1582,190.4607,86.9971,273.1177,0,U,65875,999,3947,.46349E-3,.15317E-3,0
STARLINK-34438,2025-223Y,2026-06-17T08:58:51.690432,15.34402210,.0001031,53.1587,190.7341,81.7552,278.3567,0,U,65876,999,3947,.20672E-3,.6615E-4,0
STARLINK-35462,2025-223Z,2026-06-17T07:45:25.000128,15.30210204,.0001235,53.1596,191.1209,89.8242,270.2900,0,U,65877,999,3946,.35661E-3,.1022E-3,0
STARLINK-35453,2025-223AA,2026-06-17T09:16:56.108928,15.34389756,.0000614,53.1578,190.1039,91.0611,269.0462,0,U,65878,999,3948,.30437E-3,.9918E-4,0
STARLINK-35418,2025-223AB,2026-06-17T08:04:19.700832,15.34407930,.0001107,53.1576,190.4997,88.6827,271.4302,0,U,65879,999,3947,.47306E-3,.15644E-3,0
STARLINK-35445,2025-223AC,2026-06-17T07:58:16.107168,15.34403324,.0001209,53.1580,190.4699,85.0059,275.1082,0,U,65880,999,3947,.49408E-3,.16355E-3,0
STARLINK-35464,2025-223AD,2026-06-17T09:07:49.139904,15.34402904,.0001407,53.1581,190.0616,76.4683,283.6477,0,U,65881,999,3948,.2863E-3,.931E-4,0
STARLINK-35270,2025-224A,2026-06-17T11:19:38.483616,15.34402391,.0001368,53.1602,266.3061,88.1264,271.9895,0,U,65882,999,4012,.70187E-3,.23413E-3,0
STARLINK-35367,2025-224B,2026-06-17T12:35:15.471168,15.34406298,.0001418,53.1601,265.9204,67.8715,292.2438,0,U,65883,999,4013,.45882E-3,.1516E-3,0
STARLINK-35384,2025-224C,2026-06-17T11:51:34.743168,15.30213302,.0000575,53.1592,267.8562,68.7893,291.3169,0,U,65884,999,4010,.424E-3,.12224E-3,0
STARLINK-35415,2025-224D,2026-06-17T12:26:10.072896,15.34402228,.000139,53.1604,265.8809,76.6278,283.4879,0,U,65885,999,4008,.56726E-3,.18839E-3,0
STARLINK-35413,2025-224E,2026-06-17T12:20:06.385056,15.34406567,.0001082,53.1593,265.8528,119.6786,240.4325,0,U,65886,999,4008,.57726E-3,.19182E-3,0
