STARLINK-35489          
1 65857U 25223D   26168.33844444  .00013126  00000+0  39888-3 0  9993
2 65857  53.1582 190.5192 0001297  85.0012 275.1139 15.34405325 39472
STARLINK-35199          
1 65858U 25223E   26168.33587071  .00014206  00000+0  49072-3 0  9990
2 65858  53.1586 191.2089 0001293  85.1811 274.9338 15.30208786 39469
STARLINK-35408          
1 65859U 25223F   26168.34475727  .00017373  00000+0  52404-3 0  9997
2 65859  53.1577 190.5610 0001206  91.3348 268.7793 15.34405041 39474
STARLINK-35303          
1 65860U 25223G   26168.34054800  .00016106  00000+0  48674-3 0  9991
2 65860  53.1573 190.5321 0000814  95.5594 264.5502 15.34402906 39473
STARLINK-35258          
1 65861U 25223H   26168.31950889  .00016891  00000+0  50973-3 0  9997
2 65861  53.1583 190.3982 0001305  87.0959 273.0192 15.34410654 39472
STARLINK-35386          
1 65862U 25223J   26168.37002947  .00018831  00000+0  56750-3 0  9992
2 65862  53.1573 190.7136 0001374  62.3584 297.7558 15.34375963 39475
STARLINK-35469          
1 65863U 25223K   26168.32792272  .00020866  00000+0  62684-3 0  9999
2 65863  53.1590 190.4527 0001326  91.3803 268.7352 15.34406850 39479
STARLINK-35471          
1 65864U 25223L   26168.32848116  .00009091  00000+0  31863-3 0  9991
2 65864  53.1585 191.1598 0001119  80.1114 280.0013 15.30205301 39465
STARLINK-35475          
1 65865U 25223M   26168.32371398  .00013483  00000+0  40942-3 0  9993
2 65865  53.1586 190.4221 0001239  90.7430 269.3715 15.34403889 39478
STARLINK-35312          
1 65866U 25223N   26168.33423145  .00028411  00000+0  84838-3 0  9992
2 65866  53.1580 190.4877 0001316 137.2709 222.8396 15.34416290 39471
STARLINK-35456          
1 65867U 25223P   26168.33692838  .00025373  00000+0  86511-3 0  9994
2 65867  53.1582 191.2091 0001453  87.1229 272.9938 15.30228894 39467
STARLINK-35450          
1 65868U 25223Q   26168.32581824  .00020011  00000+0  60171-3 0  9994
2 65868  53.1584 190.4402 0001303  87.7155 272.3997 15.34404507 39476
STARLINK-35441          
1 65869U 25223R   26168.34264970  .00017396  00000+0  52466-3 0  9997
2 65869  53.1578 190.5449 0001208  94.3471 265.7669 15.34408032 39470
STARLINK-35433          
1 65870U 25223S   26168.33270865  .00011579  00000+0  40216-3 0  9995
2 65870  53.1587 191.1857 0001445  90.4153 269.7013 15.30225067 39477
STARLINK-35465          
1 65871U 25223T   26168.34537002  .00012366  00000+0  42885-3 0  9995
2 65871  53.1575 191.2659 0001155 103.3381 256.7748 15.30206260 39465
STARLINK-34108          
1 65872U 25223U   26168.33167242  .00014244  00000+0  49218-3 0  9994
2 65872  53.1590 191.1783 0000912  94.1738 265.9367 15.30195944 39468
STARLINK-35423          
1 65873U 25223V   26168.37622523  .00020582  00000+0  61857-3 0  9992
2 65873  53.1577 190.0382 0001238  89.8037 270.3107 15.34402153 39483
STARLINK-35425          
1 65874U 25223W   26168.28803433  .00026153  00000+0  78222-3 0  9998
2 65874  53.1575 190.9103 0001132  88.3433 271.7699 15.34409557 39463
STARLINK-34688          
1 65875U 25223X   26168.33002704  .00015317  00000+0  46349-3 0  9992
2 65875  53.1582 190.4607 0001272  86.9971 273.1177 15.34403329 39471
STARLINK-34438          
1 65876U 25223Y   26168.37420938  .00006615  00000+0  20672-3 0  9992
2 65876  53.1587 190.7341 0001031  81.7552 278.3567 15.34402210 39474
STARLINK-35462          
1 65877U 25223Z   26168.32320602  .00010220  00000+0  35661-3 0  9996
2 65877  53.1596 191.1209 0001235  89.8242 270.2900 15.30210204 39461
STARLINK-35453          
1 65878U 25223AA  26168.38676052  .00009918  00000+0  30437-3 0  9994
2 65878  53.1578 190.1039 0000614  91.0611 269.0462 15.34389756 39481
STARLINK-35418          
1 65879U 25223AB  26168.33633913  .00015644  00000+0  47306-3 0  9995
2 65879  53.1576 190.4997 0001107  88.6827 271.4302 15.34407930 39479
STARLINK-35445          
1 65880U 25223AC  26168.33213087  .00016355  00000+0  49408-3 0  9998
2 65880  53.1580 190.4699 0001209  85.0059 275.1082 15.34403324 39475
STARLINK-35464          
1 65881U 25223AD  26168.38042986  .00009310  00000+0  28630-3 0  9999
2 65881  53.1581 190.0616 0001407  76.4683 283.6477 15.34402904 39485
STARLINK-35270          
1 65882U 25224A   26168.47197319  .00023413  00000+0  70187-3 0  9996
2 65882  53.1602 266.3061 0001368  88.1264 271.9895 15.34402391 40129
STARLINK-35367          
1 65883U 25224B   26168.52448462  .00015160  00000+0  45882-3 0  9995
2 65883  53.1601 265.9204 0001418  67.8715 292.2438 15.34406298 40134
STARLINK-35384          
1 65884U 25224C   26168.49415212  .00012224  00000+0  42400-3 0  9990
2 65884  53.1592 267.8562 0000575  68.7893 291.3169 15.30213302 40108
STARLINK-35415          
1 65885U 25224D   26168.51817214  .00018839  00000+0  56726-3 0  9996
2 65885  53.1604 265.8809 0001390  76.6278 283.4879 15.34402228 40084
STARLINK-35413          
1 65886U 25224E   26168.51396279  .00019182  00000+0  57726-3 0  9993
2 65886  53.1593 265.8528 0001082 119.6786 240.4325 15.34406567 40089
